[{"OBJECT_NAME":"STARLINK-6252","OBJECT_ID":"2023-065BE","EPOCH":"2026-03-09T22:00:01.999584","MEAN_MOTION":15.15002146,"ECCENTRICITY":0.00013428,"INCLINATION":42.9994,"RA_OF_ASC_NODE":221.0845,"ARG_OF_PERICENTER":246.3655,"MEAN_ANOMALY":18.2369,"EPHEMERIS_TYPE":0,"CLASSIFICATION_TYPE":"U","NORAD_CAT_ID":56555,"ELEMENT_SET_NO":999,"REV_AT_EPOCH":547,"BSTAR":0.0060184305,"MEAN_MOTION_DOT":0.00116057,"MEAN_MOTION_DDOT":0},{"OBJECT_NAME":"AAC-HSI-SAT2","OBJECT_ID":"2023-084BX","EPOCH":"2026-03-09T22:35:55.269024","MEAN_MOTION":15.19636036,"ECCENTRICITY":0.00130289,"INCLINATION":97.809,"RA_OF_ASC_NODE":215.6104,"ARG_OF_PERICENTER":163.6143,"MEAN_ANOMALY":196.5515,"EPHEMERIS_TYPE":0,"CLASSIFICATION_TYPE":"U","NORAD_CAT_ID":56995,"ELEMENT_SET_NO":999,"REV_AT_EPOCH":15126,"BSTAR":0.00025757454,"MEAN_MOTION_DOT":5.427e-5,"MEAN_MOTION_DDOT":0}]
